$$SOE
2460728.500000000, A.D. 2025-Feb-22 00:00:00.0000, 5.670368568536667E+08, 3.207863767585208E+08, 1.866450020742334E+07,
2460735.500000000, A.D. 2025-Mar-01 00:00:00.0000, 5.630878596102341E+08, 3.279346398191836E+08, 1.861871499343848E+07,
2460742.500000000, A.D. 2025-Mar-08 00:00:00.0000, 5.590401146603295E+08, 3.350254184300532E+08, 1.856966212555264E+07,
2460749.500000000, A.D. 2025-Mar-15 00:00:00.0000, 5.548943888270355E+08, 3.420575039510924E+08, 1.851735171748613E+07,
2460756.500000000, A.D. 2025-Mar-22 00:00:00.0000, 5.506514587046033E+08, 3.490296981796590E+08, 1.846179451151344E+07,
2460763.500000000, A.D. 2025-Mar-29 00:00:00.0000, 5.463121097636902E+08, 3.559408115107552E+08, 1.840300181264368E+07,
2460770.500000000, A.D. 2025-Apr-05 00:00:00.0000, 5.418771371547750E+08, 3.627896619824743E+08, 1.834098534047051E+07,
2460777.500000000, A.D. 2025-Apr-12 00:00:00.0000, 5.373473462833875E+08, 3.695750753107753E+08, 1.827575718352316E+07,
2460784.500000000, A.D. 2025-Apr-19 00:00:00.0000, 5.327235529697911E+08, 3.762958850326762E+08, 1.820732980098611E+07,
2460791.500000000, A.D. 2025-Apr-26 00:00:00.0000, 5.280065834647338E+08, 3.829509325553231E+08, 1.813571603002444E+07,
2460798.500000000, A.D. 2025-May-03 00:00:00.0000, 5.231972744349098E+08, 3.895390671305937E+08, 1.806092908963677E+07,
2460805.500000000, A.D. 2025-May-10 00:00:00.0000, 5.182964729466698E+08, 3.960591457643653E+08, 1.798298257894561E+07,
2460812.500000000, A.D. 2025-May-17 00:00:00.0000, 5.133050364846793E+08, 4.025100330198672E+08, 1.790189046307355E+07,
2460819.500000000, A.D. 2025-May-24 00:00:00.0000, 5.082238331794706E+08, 4.088906006610979E+08, 1.781766702612090E+07,
2460826.500000000, A.D. 2025-May-31 00:00:00.0000, 5.030537426617802E+08, 4.151997274476131E+08, 1.773032677827963E+07,
2460833.500000000, A.D. 2025-Jun-07 00:00:00.0000, 4.977956571426189E+08, 4.214363002854760E+08, 1.763988445225397E+07,
2460840.500000000, A.D. 2025-Jun-14 00:00:00.0000, 4.924504803539379E+08, 4.275992160676703E+08, 1.754635525137258E+07,
2460847.500000000, A.D. 2025-Jun-21 00:00:00.0000, 4.870191255666623E+08, 4.336873809335094E+08, 1.744975497055563E+07,
2460854.500000000, A.D. 2025-Jun-28 00:00:00.0000, 4.815025158148795E+08, 4.396997087121589E+08, 1.735009984746280E+07,
2460861.500000000, A.D. 2025-Jul-05 00:00:00.0000, 4.759015848094187E+08, 4.456351207066688E+08, 1.724740645916954E+07,
2460868.500000000, A.D. 2025-Jul-12 00:00:00.0000, 4.702172773495811E+08, 4.514925460133458E+08, 1.714169170785138E+07,
2460875.500000000, A.D. 2025-Jul-19 00:00:00.0000, 4.644505494225730E+08, 4.572709218016932E+08, 1.703297283117664E+07,
2460882.500000000, A.D. 2025-Jul-26 00:00:00.0000, 4.586023682006333E+08, 4.629691934985690E+08, 1.692126741361466E+07,
2460889.500000000, A.D. 2025-Aug-02 00:00:00.0000, 4.526737120012541E+08, 4.685863148983177E+08, 1.680659339452776E+07,
2460896.500000000, A.D. 2025-Aug-09 00:00:00.0000, 4.466655702338079E+08, 4.741212481843203E+08, 1.668896906982297E+07,
2460903.500000000, A.D. 2025-Aug-16 00:00:00.0000, 4.405789434092838E+08, 4.795729637988712E+08, 1.656841307508716E+07,
2460910.500000000, A.D. 2025-Aug-23 00:00:00.0000, 4.344148435054755E+08, 4.849404401781421E+08, 1.644494432490963E+07,
2460917.500000000, A.D. 2025-Aug-30 00:00:00.0000, 4.281742950163697E+08, 4.902226640665962E+08, 1.631858193678683E+07,
2460924.500000000, A.D. 2025-Sep-06 00:00:00.0000, 4.218583352672532E+08, 4.954186324112055E+08, 1.618934535165837E+07,
2460931.500000000, A.D. 2025-Sep-13 00:00:00.0000, 4.154680123241827E+08, 5.005273533530954E+08, 1.605725460172457E+07,
2460938.500000000, A.D. 2025-Sep-20 00:00:00.0000, 4.090043837713813E+08, 5.055478446733914E+08, 1.592233029128864E+07,
2460945.500000000, A.D. 2025-Sep-27 00:00:00.0000, 4.024685174158488E+08, 5.104791328053106E+08, 1.578459344801861E+07,
2460952.500000000, A.D. 2025-Oct-04 00:00:00.0000, 3.958614919025823E+08, 5.153202529516377E+08, 1.564406547380367E+07,
2460959.500000000, A.D. 2025-Oct-11 00:00:00.0000, 3.891843968666506E+08, 5.200702493646984E+08, 1.550076815251404E+07,
2460966.500000000, A.D. 2025-Oct-18 00:00:00.0000, 3.824383329057360E+08, 5.247281755146742E+08, 1.535472366625518E+07,
2460973.500000000, A.D. 2025-Oct-25 00:00:00.0000, 3.756244115126030E+08, 5.292930941575716E+08, 1.520595460817426E+07,
2460980.500000000, A.D. 2025-Nov-01 00:00:00.0000, 3.687437550067955E+08, 5.337640773186864E+08, 1.505448398935622E+07,
2460987.500000000, A.D. 2025-Nov-08 00:00:00.0000, 3.617974964999170E+08, 5.381402061605544E+08, 1.490033523391077E+07,
2460994.500000000, A.D. 2025-Nov-15 00:00:00.0000, 3.547867800421368E+08, 5.424205706773156E+08, 1.474353214370376E+07,
2461001.500000000, A.D. 2025-Nov-22 00:00:00.0000, 3.477127613524577E+08, 5.466042694361417E+08, 1.458409881356436E+07,
2461008.500000000, A.D. 2025-Nov-29 00:00:00.0000, 3.405766089794909E+08, 5.506904105010999E+08, 1.442205960352457E+07,
2461015.500000000, A.D. 2025-Dec-06 00:00:00.0000, 3.333795036148630E+08, 5.546781134033433E+08, 1.425743936562377E+07,
2461022.500000000, A.D. 2025-Dec-13 00:00:00.0000, 3.261226359921097E+08, 5.585665087878036E+08, 1.409026360996637E+07,
2461029.500000000, A.D. 2025-Dec-20 00:00:00.0000, 3.188072068643039E+08, 5.623547367607740E+08, 1.392055837317193E+07,
2461036.500000000, A.D. 2025-Dec-27 00:00:00.0000, 3.114344279869102E+08, 5.660419465302646E+08, 1.374835009936398E+07,
2461043.500000000, A.D. 2026-Jan-03 00:00:00.0000, 3.040055226464783E+08, 5.696272967239957E+08, 1.357366561720049E+07,
2461050.500000000, A.D. 2026-Jan-10 00:00:00.0000, 2.965217258447655E+08, 5.731099557069305E+08, 1.339653214744145E+07,
2461057.500000000, A.D. 2026-Jan-17 00:00:00.0000, 2.889842843707875E+08, 5.764891018077706E+08, 1.321697731231830E+07,
2461064.500000000, A.D. 2026-Jan-24 00:00:00.0000, 2.813944568387007E+08, 5.797639234780997E+08, 1.303502914150754E+07,
2461071.500000000, A.D. 2026-Jan-31 00:00:00.0000, 2.737535137149007E+08, 5.829336193777989E+08, 1.285071607205862E+07,
2461078.500000000, A.D. 2026-Feb-07 00:00:00.0000, 2.660627373957395E+08, 5.859973983304163E+08, 1.266406693206498E+07,
2461085.500000000, A.D. 2026-Feb-14 00:00:00.0000, 2.583234225888012E+08, 5.889544791342732E+08, 1.247511088373241E+07,
2461092.500000000, A.D. 2026-Feb-21 00:00:00.0000, 2.505368773852990E+08, 5.918040908074338E+08, 1.228387733755693E+07,
2461099.500000000, A.D. 2026-Feb-28 00:00:00.0000, 2.427044239389085E+08, 5.945454744206431E+08, 1.209039603142852E+07,
2461106.500000000, A.D. 2026-Mar-07 00:00:00.0000, 2.348273966921605E+08, 5.971778845681202E+08, 1.189469730418310E+07,
2461113.500000000, A.D. 2026-Mar-14 00:00:00.0000, 2.269071409255045E+08, 5.997005881439619E+08, 1.169681211853096E+07,
2461120.500000000, A.D. 2026-Mar-21 00:00:00.0000, 2.189450134122216E+08, 6.021128633229961E+08, 1.149677190675995E+07,
2461127.500000000, A.D. 2026-Mar-28 00:00:00.0000, 2.109423831700947E+08, 6.044139997746375E+08, 1.129460850764039E+07,
2461134.500000000, A.D. 2026-Apr-04 00:00:00.0000, 2.029006317059853E+08, 6.066032991436644E+08, 1.109035417111325E+07,
2461141.500000000, A.D. 2026-Apr-11 00:00:00.0000, 1.948211530269864E+08, 6.086800754376333E+08, 1.088404157639152E+07,
2461148.500000000, A.D. 2026-Apr-18 00:00:00.0000, 1.867053535771917E+08, 6.106436553139420E+08, 1.067570384850600E+07,
2461155.500000000, A.D. 2026-Apr-25 00:00:00.0000, 1.785546521456634E+08, 6.124933782810972E+08, 1.046537457050431E+07,
2461162.500000000, A.D. 2026-May-02 00:00:00.0000, 1.703704797761182E+08, 6.142285967846767E+08, 1.025308778628013E+07,
2461169.500000000, A.D. 2026-May-09 00:00:00.0000, 1.621542798029108E+08, 6.158486761121573E+08, 1.003887797739419E+07,
2461176.500000000, A.D. 2026-May-16 00:00:00.0000, 1.539075083914404E+08, 6.173529942555826E+08, 9.822779990679294E+06,
2461183.500000000, A.D. 2026-May-23 00:00:00.0000, 1.456316356352431E+08, 6.187409427551284E+08, 9.604828995489806E+06,
2461190.500000000, A.D. 2026-May-30 00:00:00.0000, 1.373281451318918E+08, 6.200119288431994E+08, 9.385060687296659E+06,
2461197.500000000, A.D. 2026-Jun-06 00:00:00.0000, 1.289985317202039E+08, 6.211653756148638E+08, 9.163511499143571E+06,
2461204.500000000, A.D. 2026-Jun-13 00:00:00.0000, 1.206443010442045E+08, 6.222007204239538E+08, 8.940218500896931E+06,
2461211.500000000, A.D. 2026-Jun-20 00:00:00.0000, 1.122669704429937E+08, 6.231174144315413E+08, 8.715219271125823E+06,
2461218.500000000, A.D. 2026-Jun-27 00:00:00.0000, 1.038680694681996E+08, 6.239149229666960E+08, 8.488551869317144E+06,
2461225.500000000, A.D. 2026-Jul-04 00:00:00.0000, 9.544914002858937E+07, 6.245927259243938E+08, 8.260254844829261E+06,
2461232.500000000, A.D. 2026-Jul-11 00:00:00.0000, 8.701173641542570E+07, 6.251503180686487E+08, 8.030367248240143E+06,
2461239.500000000, A.D. 2026-Jul-18 00:00:00.0000, 7.855742530098064E+07, 6.255872092666712E+08, 7.798928638425946E+06,
2461246.500000000, A.D. 2026-Jul-25 00:00:00.0000, 7.008778573436165E+07, 6.259029246568519E+08, 7.565979083115190E+06,
2461253.500000000, A.D. 2026-Aug-01 00:00:00.0000, 6.160440918244073E+07, 6.260970047025275E+08, 7.331559144381434E+06,
2461260.500000000, A.D. 2026-Aug-08 00:00:00.0000, 5.310889983040777E+07, 6.261690050957749E+08, 7.095709826290041E+06,
2461267.500000000, A.D. 2026-Aug-15 00:00:00.0000, 4.460287555659060E+07, 6.261184969619398E+08, 6.858472483340800E+06,
2461274.500000000, A.D. 2026-Aug-22 00:00:00.0000, 3.608796882030058E+07, 6.259450685866768E+08, 6.619888859224379E+06,
2461281.500000000, A.D. 2026-Aug-29 00:00:00.0000, 2.756582517359421E+07, 6.256483272925889E+08, 6.380001353597134E+06,
2461288.500000000, A.D. 2026-Sep-05 00:00:00.0000, 1.903810152982692E+07, 6.252278985967709E+08, 6.138853086844027E+06,
2461295.500000000, A.D. 2026-Sep-12 00:00:00.0000, 1.050646664310525E+07, 6.246834251456237E+08, 5.896487741668463E+06,
2461302.500000000, A.D. 2026-Sep-19 00:00:00.0000, 1.972601924804913E+06, 6.240145669716371E+08, 5.652949479522198E+06,
$$EOE